[{"OBJECT_NAME":"HULIANWANG DIGUI-137","OBJECT_ID":"2026-007A","EPOCH":"2026-03-09T20:34:08.550624","MEAN_MOTION":13.36383408,"ECCENTRICITY":5.874e-5,"INCLINATION":50.0073,"RA_OF_ASC_NODE":82.1817,"ARG_OF_PERICENTER":32.8555,"MEAN_ANOMALY":327.2357,"EPHEMERIS_TYPE":0,"CLASSIFICATION_TYPE":"U","NORAD_CAT_ID":67435,"ELEMENT_SET_NO":999,"REV_AT_EPOCH":757,"BSTAR":0.00012481574,"MEAN_MOTION_DOT":-6.2e-7,"MEAN_MOTION_DDOT":0},{"OBJECT_NAME":"UNKNOWN","OBJECT_ID":"","EPOCH":"2026-03-01T19:58:05.282112","MEAN_MOTION":13.35612304,"ECCENTRICITY":0.0060247,"INCLINATION":99.6988,"RA_OF_ASC_NODE":275.7697,"ARG_OF_PERICENTER":71.0193,"MEAN_ANOMALY":353.378,"EPHEMERIS_TYPE":0,"CLASSIFICATION_TYPE":"U","NORAD_CAT_ID":87541,"ELEMENT_SET_NO":999,"REV_AT_EPOCH":59259,"BSTAR":0.00033234,"MEAN_MOTION_DOT":1.29e-6,"MEAN_MOTION_DDOT":0}]
